1 28892U 05043C   15204.73447338  .00000315  00000-0  70337-4 0  9995
2 28892 097.8225 028.9111 0016628 175.7625 184.3722 14.62797401519049
1 28892U 05043C   15206.03413762  .00000259  00000-0  59271-4 0  9995
2 28892 097.8225 030.1429 0016726 171.6731 188.4752 14.62798025519230
1 28892U 05043C   15207.06018766  .00000265  00000-0  60554-4 0  9997
2 28892 097.8224 031.1155 0016804 168.4761 191.6830 14.62798788519385
1 28892U 05043C   15208.49665668  .00000290  00000-0  65331-4 0  9990
2 28892 097.8224 032.4771 0016917 164.0252 196.1487 14.62800022519591
1 28892U 05043C   15210.06993064  .00000353  00000-0  77657-4 0  9994
2 28892 097.8224 033.9684 0017056 159.2489 200.9410 14.62801667519825
1 28892U 05043C   15211.43799418  .00000368  00000-0  80546-4 0  9990
2 28892 097.8224 035.2651 0017150 155.0536 205.1499 14.62802768520027
1 28892U 05043C   15212.46404059  .00000449  00000-0  96434-4 0  9991
2 28892 097.8224 036.2378 0017222 151.9479 208.2655 14.62804136520170
1 28892U 05043C   15213.49008644  .00000501  00000-0  10663-3 0  9993
2 28892 097.8225 037.2103 0017297 148.8481 211.3751 14.62805346520321
1 28892U 05043C   15214.51613150  .00000483  00000-0  10312-3 0  9991
2 28892 097.8225 038.1829 0017370 145.7846 214.4479 14.62806208520474
1 28892U 05043C   15216.08939923  .00000466  00000-0  99818-4 0  9994
2 28892 097.8226 039.6743 0017471 141.0405 219.2060 14.62807614520705
1 28892U 05043C   15217.45745678  .00000480  00000-0  10254-3 0  9990
2 28892 097.8227 040.9711 0017537 136.9118 223.3461 14.62808951520901
1 28892U 05043C   15218.55190172  .00000458  00000-0  98190-4 0  9996
2 28892 097.8228 042.0085 0017596 133.6809 226.5855 14.62809911521062
1 28892U 05043C   15219.57794268  .00000556  00000-0  11728-3 0  9995
2 28892 097.8228 042.9811 0017644 130.6053 229.6688 14.62811527521211
1 28892U 05043C   15221.08280104  .00000635  00000-0  13286-3 0  9992
2 28892 097.8228 044.4076 0017711 126.1133 234.1713 14.62813665521434
1 28892U 05043C   15222.45085281  .00000560  00000-0  11821-3 0  9993
2 28892 097.8228 045.7045 0017773 122.0871 238.2060 14.62814733521635
1 28892U 05043C   15223.47689048  .00000473  00000-0  10111-3 0  9991
2 28892 097.8227 046.6771 0017811 119.0695 241.2294 14.62815444521782
1 28892U 05043C   15225.05014675  .00000394  00000-0  85584-4 0  9994
2 28892 097.8228 048.1685 0017871 114.4350 245.8719 14.62816711522014
1 28892U 05043C   15226.14458459  .00000331  00000-0  73414-4 0  9997
2 28892 097.8228 049.2060 0017907 111.2525 249.0593 14.62817556522173
1 28892U 05043C   15227.17061956  .00000305  00000-0  68253-4 0  9999
2 28892 097.8228 050.1787 0017931 108.2169 252.0987 14.62818365522324
1 28892U 05043C   15228.47026198  .00000529  00000-0  11205-3 0  9994
2 28892 097.8229 051.4107 0017958 104.4337 255.8860 14.62820967522512
1 28892U 05043C   15229.49629514  .00000457  00000-0  97936-4 0  9994
2 28892 097.8230 052.3835 0017982 101.4528 258.8695 14.62821526522665
1 28892U 05043C   15229.90670836 +.00000417 +00000-0 +90165-4 0  9996
2 28892 097.8230 052.7726 0017992 100.2629 260.0603 14.62821616522471
1 28892U 05043C   15230.79593630  .00000358  00000-0  78712-4 0  9999
2 28892 097.8231 053.6156 0018001 097.6776 262.6472 14.62822073522855
1 28892U 05043C   15230.86433848 +.00000338 +00000-0 +74722-4 0  9996
2 28892 097.8231 053.6804 0018002 097.4799 262.8449 14.62822009522618
1 28892U 05043C   15231.47995750 +.00000268 +00000-0 +60960-4 0  9990
2 28892 097.8231 054.2641 0018006 095.6952 264.6305 14.62822144522700
1 28892U 05043C   15232.02717412  .00000310  00000-0  69303-4 0  9997
2 28892 097.8232 054.7828 0018014 094.1070 266.2192 14.62822852523032
1 28892U 05043C   15233.05320469  .00000337  00000-0  74460-4 0  9992
2 28892 097.8232 055.7555 0018017 091.0905 269.2362 14.62823859523182
1 28892U 05043C   15234.48964630 +.00000344 +00000-0 +75917-4 0  9990
2 28892 097.8232 057.1173 0018005 086.9204 273.4058 14.62825122523146
1 28892U 05043C   15235.92608653 +.00000359 +00000-0 +78727-4 0  9998
2 28892 097.8232 058.4791 0017987 082.7569 277.5677 14.62826386523350
1 28892U 05043C   15236.47330172 +.00000353 +00000-0 +77650-4 0  9995
2 28892 097.8232 058.9978 0017990 081.1355 279.1884 14.62826739523688
1 28892U 05043C   15239.00416877  .00000348  00000-0  76708-4 0  9991
2 28892 097.8232 061.3972 0017948 073.7531 286.5644 14.62828733524050
1 28892U 05043C   15239.75658741 +.00000392 +00000-0 +85220-4 0  9999
2 28892 097.8232 062.1105 0017927 071.5666 288.7483 14.62829707523910
1 28892U 05043C   15240.03019395  .00000400  00000-0  86784-4 0  9994
2 28892 097.8232 062.3699 0017924 070.7640 289.5500 14.62830088524206
1 28892U 05043C   15240.91941505 +.00000437 +00000-0 +94108-4 0  9997
2 28892 097.8233 063.2130 0017900 068.1534 292.1570 14.62831261524081
1 28892U 05043C   15241.05621824  .00000434  00000-0  93532-4 0  9999
2 28892 097.8233 063.3427 0017894 067.7602 292.5496 14.62831394524352
1 28892U 05043C   15241.46662756 +.00000477 +00000-0 +10182-3 0  9999
2 28892 097.8233 063.7318 0017878 066.5403 293.7677 14.62832130524165
1 28892U 05043C   15242.49265108  .00000373  00000-0  81651-4 0  9998
2 28892 097.8233 064.7047 0017850 063.5218 296.7813 14.62832629524568
1 28892U 05043C   15243.72387806  .00000364  00000-0  79881-4 0  9997
2 28892  97.8234  65.8720 0017802  59.9205 300.3760 14.62833841524741
1 28892U 05043C   15243.92908241 +.00000361 +00000-0 +79200-4 0  9993
2 28892 097.8234 066.0665 0017788 059.3297 300.9656 14.62834058524527
1 28892U 05043C   15244.74989971  .00000347  00000-0  76499-4 0  9994
2 28892  97.8234  66.8447 0017759  56.9023 303.3881 14.62834781524891
1 28892U 05043C   15245.50231529 +.00000310 +00000-0 +69253-4 0  9998
2 28892 097.8234 067.5581 0017723 054.6739 305.6117 14.62835247524758
1 28892U 05043C   15246.04952635  .00000309  00000-0  69139-4 0  9997
2 28892  97.8234  68.0769 0017699  53.0688 307.2133 14.62835704525081
1 28892U 05043C   15246.93874399 +.00000305 +00000-0 +68221-4 0  9992
2 28892 097.8234 068.9200 0017650 050.4192 309.8566 14.62836377524969
1 28892U 05043C   15247.48595453  .00000318  00000-0  70850-4 0  9999
2 28892  97.8234  69.4388 0017621  48.7870 311.4848 14.62836877525297
1 28892U 05043C   15248.92238156 +.00000337 +00000-0 +74557-4 0  9992
2 28892 097.8234 070.8007 0017537 044.5105 315.7503 14.62838034525250
1 28892U 05043C   15248.99078280  .00000338  00000-0  74756-4 0  9991
2 28892  97.8234  70.8655 0017534  44.3089 315.9514 14.62838098525518
1 28892U 05043C   15249.74319650 +.00000329 +00000-0 +73011-4 0  9997
2 28892 097.8234 071.5789 0017499 042.0628 318.1915 14.62838606525377
1 28892U 05043C   15250.01680134  .00000326  00000-0  72384-4 0  9996
2 28892  97.8234  71.8383 0017482  41.2485 319.0035 14.62838829525666
1 28892U 05043C   15250.49560975 +.00000325 +00000-0 +72277-4 0  9998
2 28892 097.8234 072.2923 0017455 039.8071 320.4408 14.62839193525480
1 28892U 05043C   15251.04281898  .00000354  00000-0  77766-4 0  9994
2 28892  97.8234  72.8111 0017423  38.1821 322.0613 14.62839842525819
1 28892U 05043C   15251.93203361 +.00000386 +00000-0 +84142-4 0  9992
2 28892 097.8234 073.6542 0017366 035.5031 324.7324 14.62840835525694
1 28892U 05043C   15252.75284648  .00000382  00000-0  83401-4 0  9993
2 28892  97.8234  74.4325 0017318  32.9903 327.2376 14.62841616526063
1 28892U 05043C   15253.50525770 +.00000447 +00000-0 +96071-4 0  9990
2 28892 097.8233 075.1459 0017268 030.7241 329.4969 14.62842775525926
1 28892U 05043C   15253.98406487  .00000381  00000-0  83110-4 0  9992
2 28892  97.8234  75.5998 0017234  29.2893 330.9272 14.62842865526248
1 28892U 05043C   15254.94167840 +.00000395 +00000-0 +85827-4 0  9998
2 28892 097.8234 076.5078 0017168 026.3744 333.8329 14.62843932526136
1 28892U 05043C   15255.07848027  .00000391  00000-0  85095-4 0  9999
2 28892  97.8234  76.6375 0017157  25.9572 334.2488 14.62844052526404
1 28892U 05043C   15255.76248962 +.00000357 +00000-0 +78491-4 0  9991
2 28892 097.8234 077.2861 0017114 023.8701 336.3291 14.62844522526255
1 28892U 05043C   15256.44649876  .00000317  00000-0  70671-4 0  9994
2 28892  97.8234  77.9346 0017065  21.7157 338.4765 14.62844916526602
1 28892U 05043C   15256.92530483 +.00000328 +00000-0 +72719-4 0  9997
2 28892 097.8234 078.3886 0017030 020.2450 339.9425 14.62845452526423
1 28892U 05043C   15257.47251181  .00000309  00000-0  69024-4 0  9997
2 28892  97.8235  78.9075 0016991  18.5344 341.6474 14.62845807526751
1 28892U 05043C   15258.49852425  .00000322  00000-0  71548-4 0  9997
2 28892  97.8235  79.8804 0016918  15.3808 344.7905 14.62846751526909
1 28892U 05043C   15259.45613555 +.00000290 +00000-0 +65454-4 0  9996
2 28892 097.8236 080.7884 0016841 012.4285 347.7330 14.62847283526794
1 28892U 05043C   15260.07174249  .00000285  00000-0  64383-4 0  9992
2 28892  97.8236  81.3721 0016783  10.5564 349.5988 14.62847733527133
1 28892U 05043C   15260.48214708 +.00000292 +00000-0 +65811-4 0  9997
2 28892 097.8236 081.7613 0016749 009.2675 350.8834 14.62848052526945
1 28892U 05043C   15261.43975743  .00000307  00000-0  68737-4 0  9993
2 28892  97.8236  82.6693 0016672   6.2745 353.8664 14.62848790527330
1 28892U 05043C   15261.91856231 +.00000330 +00000-0 +73236-4 0  9992
2 28892 097.8236 083.1233 0016633 004.7892 355.3466 14.62849290527152
1 28892U 05043C   15262.46576778  .00000377  00000-0  82336-4 0  9990
2 28892  97.8236  83.6422 0016591   3.0517 357.0784 14.62849950527487
1 28892U 05043C   15262.94457251 +.00000370 +00000-0 +81065-4 0  9998
2 28892 097.8236 084.0962 0016550 001.5738 358.5514 14.62850284527304
1 28892U 05043C   15263.01297317 +.00000369 +00000-0 +80781-4 0  9994
2 28892 097.8236 084.1610 0016545 001.3573 358.7671 14.62850327527319
1 28892U 05043C   15264.03898247  .00000412  00000-0  89142-4 0  9995
2 28892  97.8235  85.1339 0016461 358.1341   1.9798 14.62851429527715
